{"fetched_at":"2026-07-11T09:24:22.071Z","source":"https://celestrak.org/NORAD/elements/gp.php?NAME=HAWK&FORMAT=JSON","constellation":"hawkeye-360","records":[{"OBJECT_NAME":"HAWK-A","OBJECT_ID":"2018-099H","EPOCH":"2026-07-10T10:45:30.625632","CLASSIFICATION_TYPE":"U","MEAN_MOTION":15.24925601,"ECCENTRICITY":0.00342248,"INCLINATION":97.3905,"RA_OF_ASC_NODE":243.3829,"ARG_OF_PERICENTER":200.742,"MEAN_ANOMALY":159.2431,"EPHEMERIS_TYPE":0,"NORAD_CAT_ID":43765,"ELEMENT_SET_NO":999,"REV_AT_EPOCH":41664,"BSTAR":0.00018327804,"MEAN_MOTION_DOT":0.00004564,"MEAN_MOTION_DDOT":0},{"OBJECT_NAME":"HAWK-B","OBJECT_ID":"2018-099AN","EPOCH":"2026-07-11T02:08:08.037024","CLASSIFICATION_TYPE":"U","MEAN_MOTION":15.23085137,"ECCENTRICITY":0.0030984,"INCLINATION":97.3953,"RA_OF_ASC_NODE":243.3798,"ARG_OF_PERICENTER":216.7407,"MEAN_ANOMALY":143.1706,"EPHEMERIS_TYPE":0,"NORAD_CAT_ID":43794,"ELEMENT_SET_NO":999,"REV_AT_EPOCH":41667,"BSTAR":0.0001607,"MEAN_MOTION_DOT":0.00003765,"MEAN_MOTION_DDOT":0},{"OBJECT_NAME":"HAWK-C","OBJECT_ID":"2018-099AT","EPOCH":"2026-07-10T13:38:13.236864","CLASSIFICATION_TYPE":"U","MEAN_MOTION":15.28444337,"ECCENTRICITY":0.0039834,"INCLINATION":97.3884,"RA_OF_ASC_NODE":244.5291,"ARG_OF_PERICENTER":200.2244,"MEAN_ANOMALY":159.742,"EPHEMERIS_TYPE":0,"NORAD_CAT_ID":43799,"ELEMENT_SET_NO":999,"REV_AT_EPOCH":41748,"BSTAR":0.00020836,"MEAN_MOTION_DOT":0.00005828,"MEAN_MOTION_DDOT":0},{"OBJECT_NAME":"HAWK-2C","OBJECT_ID":"2021-006CT","EPOCH":"2026-07-11T01:54:40.094208","CLASSIFICATION_TYPE":"U","MEAN_MOTION":15.34955387,"ECCENTRICITY":0.0008566,"INCLINATION":97.2272,"RA_OF_ASC_NODE":235.9148,"ARG_OF_PERICENTER":112.4872,"MEAN_ANOMALY":247.7279,"EPHEMERIS_TYPE":0,"NORAD_CAT_ID":47502,"ELEMENT_SET_NO":999,"REV_AT_EPOCH":30316,"BSTAR":0.00012285,"MEAN_MOTION_DOT":0.00004091,"MEAN_MOTION_DDOT":0},{"OBJECT_NAME":"HAWK-2A","OBJECT_ID":"2021-006CW","EPOCH":"2026-07-11T01:57:55.727136","CLASSIFICATION_TYPE":"U","MEAN_MOTION":15.34970478,"ECCENTRICITY":0.0008071,"INCLINATION":97.2314,"RA_OF_ASC_NODE":236.6088,"ARG_OF_PERICENTER":115.6969,"MEAN_ANOMALY":244.5109,"EPHEMERIS_TYPE":0,"NORAD_CAT_ID":47505,"ELEMENT_SET_NO":999,"REV_AT_EPOCH":30316,"BSTAR":0.0001247,"MEAN_MOTION_DOT":0.00004155,"MEAN_MOTION_DDOT":0},{"OBJECT_NAME":"HAWK-2B","OBJECT_ID":"2021-006CZ","EPOCH":"2026-07-11T01:49:05.975040","CLASSIFICATION_TYPE":"U","MEAN_MOTION":15.35097668,"ECCENTRICITY":0.0008652,"INCLINATION":97.2184,"RA_OF_ASC_NODE":234.8967,"ARG_OF_PERICENTER":114.043,"MEAN_ANOMALY":246.172,"EPHEMERIS_TYPE":0,"NORAD_CAT_ID":47508,"ELEMENT_SET_NO":999,"REV_AT_EPOCH":30316,"BSTAR":0.00013605,"MEAN_MOTION_DOT":0.0000456,"MEAN_MOTION_DDOT":0},{"OBJECT_NAME":"HAWK-3B","OBJECT_ID":"2021-059BE","EPOCH":"2026-07-10T00:09:47.277216","CLASSIFICATION_TYPE":"U","MEAN_MOTION":15.71525502,"ECCENTRICITY":0.00040899,"INCLINATION":97.6649,"RA_OF_ASC_NODE":29.9062,"ARG_OF_PERICENTER":217.8107,"MEAN_ANOMALY":142.2868,"EPHEMERIS_TYPE":0,"NORAD_CAT_ID":48931,"ELEMENT_SET_NO":999,"REV_AT_EPOCH":28143,"BSTAR":0.00027709148,"MEAN_MOTION_DOT":0.00035395,"MEAN_MOTION_DDOT":0},{"OBJECT_NAME":"HAWK-3C","OBJECT_ID":"2021-059BX","EPOCH":"2026-07-11T00:36:22.595328","CLASSIFICATION_TYPE":"U","MEAN_MOTION":15.71601025,"ECCENTRICITY":0.000423,"INCLINATION":97.6758,"RA_OF_ASC_NODE":36.7502,"ARG_OF_PERICENTER":212.6922,"MEAN_ANOMALY":147.4079,"EPHEMERIS_TYPE":0,"NORAD_CAT_ID":48948,"ELEMENT_SET_NO":999,"REV_AT_EPOCH":28159,"BSTAR":0.00025127,"MEAN_MOTION_DOT":0.00032175,"MEAN_MOTION_DDOT":0},{"OBJECT_NAME":"HAWK-3A","OBJECT_ID":"2021-059CG","EPOCH":"2026-07-11T00:36:12.847680","CLASSIFICATION_TYPE":"U","MEAN_MOTION":15.71599731,"ECCENTRICITY":0.0004377,"INCLINATION":97.6704,"RA_OF_ASC_NODE":33.9356,"ARG_OF_PERICENTER":215.4578,"MEAN_ANOMALY":144.6394,"EPHEMERIS_TYPE":0,"NORAD_CAT_ID":48957,"ELEMENT_SET_NO":999,"REV_AT_EPOCH":28159,"BSTAR":0.00025582,"MEAN_MOTION_DOT":0.00032762,"MEAN_MOTION_DDOT":0},{"OBJECT_NAME":"HAWK-5C","OBJECT_ID":"2022-057Y","EPOCH":"2026-07-10T09:17:30.819264","CLASSIFICATION_TYPE":"U","MEAN_MOTION":15.52213217,"ECCENTRICITY":0.0003254,"INCLINATION":97.6608,"RA_OF_ASC_NODE":352.568,"ARG_OF_PERICENTER":5.7511,"MEAN_ANOMALY":354.3777,"EPHEMERIS_TYPE":0,"NORAD_CAT_ID":52754,"ELEMENT_SET_NO":999,"REV_AT_EPOCH":22994,"BSTAR":0.00020969,"MEAN_MOTION_DOT":0.00012612,"MEAN_MOTION_DDOT":0},{"OBJECT_NAME":"HAWK-5B","OBJECT_ID":"2022-057AA","EPOCH":"2026-07-10T09:17:14.310816","CLASSIFICATION_TYPE":"U","MEAN_MOTION":15.52210401,"ECCENTRICITY":0.0003914,"INCLINATION":97.6625,"RA_OF_ASC_NODE":350.9202,"ARG_OF_PERICENTER":352.3757,"MEAN_ANOMALY":7.7435,"EPHEMERIS_TYPE":0,"NORAD_CAT_ID":52756,"ELEMENT_SET_NO":999,"REV_AT_EPOCH":22994,"BSTAR":0.00019902,"MEAN_MOTION_DOT":0.00011964,"MEAN_MOTION_DDOT":0},{"OBJECT_NAME":"HAWK-5A","OBJECT_ID":"2022-057AB","EPOCH":"2026-07-11T03:50:55.733856","CLASSIFICATION_TYPE":"U","MEAN_MOTION":15.52229194,"ECCENTRICITY":0.0003725,"INCLINATION":97.6616,"RA_OF_ASC_NODE":352.5753,"ARG_OF_PERICENTER":354.1832,"MEAN_ANOMALY":5.9376,"EPHEMERIS_TYPE":0,"NORAD_CAT_ID":52757,"ELEMENT_SET_NO":999,"REV_AT_EPOCH":23006,"BSTAR":0.00019005,"MEAN_MOTION_DOT":0.00011427,"MEAN_MOTION_DDOT":0},{"OBJECT_NAME":"HAWK-6B","OBJECT_ID":"2023-011A","EPOCH":"2026-07-11T01:13:42.441024","CLASSIFICATION_TYPE":"U","MEAN_MOTION":15.23131238,"ECCENTRICITY":0.0003524,"INCLINATION":40.4969,"RA_OF_ASC_NODE":212.8596,"ARG_OF_PERICENTER":219.2078,"MEAN_ANOMALY":140.8477,"EPHEMERIS_TYPE":0,"NORAD_CAT_ID":55324,"ELEMENT_SET_NO":999,"REV_AT_EPOCH":19148,"BSTAR":0.00012257,"MEAN_MOTION_DOT":0.00002759,"MEAN_MOTION_DDOT":0},{"OBJECT_NAME":"HAWK-6C","OBJECT_ID":"2023-011C","EPOCH":"2026-07-11T02:47:13.478208","CLASSIFICATION_TYPE":"U","MEAN_MOTION":15.23132905,"ECCENTRICITY":0.0004051,"INCLINATION":40.4958,"RA_OF_ASC_NODE":209.3159,"ARG_OF_PERICENTER":209.3679,"MEAN_ANOMALY":150.6903,"EPHEMERIS_TYPE":0,"NORAD_CAT_ID":55326,"ELEMENT_SET_NO":999,"REV_AT_EPOCH":19150,"BSTAR":0.00012363,"MEAN_MOTION_DOT":0.00002785,"MEAN_MOTION_DDOT":0},{"OBJECT_NAME":"HAWK-6A","OBJECT_ID":"2023-011D","EPOCH":"2026-07-11T02:47:16.485792","CLASSIFICATION_TYPE":"U","MEAN_MOTION":15.23131663,"ECCENTRICITY":0.0003576,"INCLINATION":40.4965,"RA_OF_ASC_NODE":210.9429,"ARG_OF_PERICENTER":207.0369,"MEAN_ANOMALY":153.0254,"EPHEMERIS_TYPE":0,"NORAD_CAT_ID":55327,"ELEMENT_SET_NO":999,"REV_AT_EPOCH":19150,"BSTAR":0.00011487,"MEAN_MOTION_DOT":0.00002574,"MEAN_MOTION_DDOT":0},{"OBJECT_NAME":"HAWK-7A","OBJECT_ID":"2023-054P","EPOCH":"2026-07-11T03:39:21.921120","CLASSIFICATION_TYPE":"U","MEAN_MOTION":15.27605934,"ECCENTRICITY":0.000184,"INCLINATION":97.2674,"RA_OF_ASC_NODE":78.8807,"ARG_OF_PERICENTER":352.8969,"MEAN_ANOMALY":7.2244,"EPHEMERIS_TYPE":0,"NORAD_CAT_ID":56191,"ELEMENT_SET_NO":999,"REV_AT_EPOCH":18068,"BSTAR":0.00013057,"MEAN_MOTION_DOT":0.00003452,"MEAN_MOTION_DDOT":0}]}
